[{"OBJECT_NAME":"STARLINK-6239","OBJECT_ID":"2023-061BB","EPOCH":"2025-11-16T00:23:06.777888","MEAN_MOTION":15.02535381,"ECCENTRICITY":0.00013006,"INCLINATION":43.0042,"RA_OF_ASC_NODE":69.2583,"ARG_OF_PERICENTER":270.4807,"MEAN_ANOMALY":89.5887,"EPHEMERIS_TYPE":0,"CLASSIFICATION_TYPE":"U","NORAD_CAT_ID":56423,"ELEMENT_SET_NO":999,"REV_AT_EPOCH":13995,"BSTAR":0.00020098336,"MEAN_MOTION_DOT":2.512e-5,"MEAN_MOTION_DDOT":0},{"OBJECT_NAME":"STARLINK-6242","OBJECT_ID":"2023-061BC","EPOCH":"2025-11-16T16:06:00.886176","MEAN_MOTION":15.02529741,"ECCENTRICITY":0.0001222,"INCLINATION":43.0021,"RA_OF_ASC_NODE":65.5701,"ARG_OF_PERICENTER":275.8963,"MEAN_ANOMALY":84.174,"EPHEMERIS_TYPE":0,"CLASSIFICATION_TYPE":"U","NORAD_CAT_ID":56424,"ELEMENT_SET_NO":999,"REV_AT_EPOCH":14005,"BSTAR":7.7769e-5,"MEAN_MOTION_DOT":8.47e-6,"MEAN_MOTION_DDOT":0},{"OBJECT_NAME":"STARLINK-6224","OBJECT_ID":"2023-061BD","EPOCH":"2025-11-16T14:35:03.883776","MEAN_MOTION":15.02539318,"ECCENTRICITY":0.00012341,"INCLINATION":43.0038,"RA_OF_ASC_NODE":65.9554,"ARG_OF_PERICENTER":268.3963,"MEAN_ANOMALY":91.6738,"EPHEMERIS_TYPE":0,"CLASSIFICATION_TYPE":"U","NORAD_CAT_ID":56425,"ELEMENT_SET_NO":999,"REV_AT_EPOCH":14004,"BSTAR":9.2155475e-5,"MEAN_MOTION_DOT":1.042e-5,"MEAN_MOTION_DDOT":0},{"OBJECT_NAME":"STARLINK-5352","OBJECT_ID":"2023-061BE","EPOCH":"2025-11-16T14:01:40.298880","MEAN_MOTION":15.02541698,"ECCENTRICITY":0.00014945,"INCLINATION":43.0048,"RA_OF_ASC_NODE":66.6267,"ARG_OF_PERICENTER":267.3952,"MEAN_ANOMALY":92.672,"EPHEMERIS_TYPE":0,"CLASSIFICATION_TYPE":"U","NORAD_CAT_ID":56426,"ELEMENT_SET_NO":999,"REV_AT_EPOCH":14003,"BSTAR":0.00016636077,"MEAN_MOTION_DOT":2.045e-5,"MEAN_MOTION_DDOT":0},{"OBJECT_NAME":"STARLINK-5724","OBJECT_ID":"2023-061BF","EPOCH":"2025-11-16T01:01:28.005600","MEAN_MOTION":15.0253953,"ECCENTRICITY":5.275e-5,"INCLINATION":43.0029,"RA_OF_ASC_NODE":69.4461,"ARG_OF_PERICENTER":243.1032,"MEAN_ANOMALY":116.9757,"EPHEMERIS_TYPE":0,"CLASSIFICATION_TYPE":"U","NORAD_CAT_ID":56427,"ELEMENT_SET_NO":999,"REV_AT_EPOCH":13995,"BSTAR":5.4928187e-5,"MEAN_MOTION_DOT":5.39e-6,"MEAN_MOTION_DDOT":0},{"OBJECT_NAME":"STARLINK-6238","OBJECT_ID":"2023-061BG","EPOCH":"2025-11-16T15:56:23.176032","MEAN_MOTION":15.02555821,"ECCENTRICITY":0.0001194,"INCLINATION":43.0027,"RA_OF_ASC_NODE":65.5204,"ARG_OF_PERICENTER":290.5083,"MEAN_ANOMALY":69.5631,"EPHEMERIS_TYPE":0,"CLASSIFICATION_TYPE":"U","NORAD_CAT_ID":56428,"ELEMENT_SET_NO":999,"REV_AT_EPOCH":14005,"BSTAR":-6.1097e-5,"MEAN_MOTION_DOT":-1.029e-5,"MEAN_MOTION_DDOT":0},{"OBJECT_NAME":"STARLINK-6264","OBJECT_ID":"2023-061BH","EPOCH":"2025-11-16T15:51:37.278432","MEAN_MOTION":15.02541357,"ECCENTRICITY":0.0001309,"INCLINATION":43.0045,"RA_OF_ASC_NODE":65.4934,"ARG_OF_PERICENTER":261.4865,"MEAN_ANOMALY":98.5829,"EPHEMERIS_TYPE":0,"CLASSIFICATION_TYPE":"U","NORAD_CAT_ID":56429,"ELEMENT_SET_NO":999,"REV_AT_EPOCH":14005,"BSTAR":0.00018018,"MEAN_MOTION_DOT":2.231e-5,"MEAN_MOTION_DDOT":0},{"OBJECT_NAME":"STARLINK-5990","OBJECT_ID":"2023-064A","EPOCH":"2025-11-16T14:15:10.427616","MEAN_MOTION":14.98341163,"ECCENTRICITY":0.00031088,"INCLINATION":70.0002,"RA_OF_ASC_NODE":69.6846,"ARG_OF_PERICENTER":270.2786,"MEAN_ANOMALY":89.8017,"EPHEMERIS_TYPE":0,"CLASSIFICATION_TYPE":"U","NORAD_CAT_ID":56448,"ELEMENT_SET_NO":999,"REV_AT_EPOCH":13830,"BSTAR":-2.7896551e-5,"MEAN_MOTION_DOT":-4.26e-6,"MEAN_MOTION_DDOT":0},{"OBJECT_NAME":"STARLINK-5993","OBJECT_ID":"2023-064B","EPOCH":"2025-11-16T17:57:15.965280","MEAN_MOTION":14.98336923,"ECCENTRICITY":0.0003077,"INCLINATION":70,"RA_OF_ASC_NODE":69.4186,"ARG_OF_PERICENTER":267.134,"MEAN_ANOMALY":92.9467,"EPHEMERIS_TYPE":0,"CLASSIFICATION_TYPE":"U","NORAD_CAT_ID":56449,"ELEMENT_SET_NO":999,"REV_AT_EPOCH":13832,"BSTAR":0.00014321,"MEAN_MOTION_DOT":1.616e-5,"MEAN_MOTION_DDOT":0},{"OBJECT_NAME":"STARLINK-5970","OBJECT_ID":"2023-064C","EPOCH":"2025-11-16T17:21:27.178272","MEAN_MOTION":14.98334313,"ECCENTRICITY":0.0002762,"INCLINATION":70.0001,"RA_OF_ASC_NODE":69.3328,"ARG_OF_PERICENTER":264.7113,"MEAN_ANOMALY":95.3731,"EPHEMERIS_TYPE":0,"CLASSIFICATION_TYPE":"U","NORAD_CAT_ID":56450,"ELEMENT_SET_NO":999,"REV_AT_EPOCH":13832,"BSTAR":-0.00043505,"MEAN_MOTION_DOT":-5.28e-5,"MEAN_MOTION_DDOT":0},{"OBJECT_NAME":"STARLINK-5985","OBJECT_ID":"2023-064D","EPOCH":"2025-11-16T17:51:15.165792","MEAN_MOTION":14.9834704,"ECCENTRICITY":0.0002929,"INCLINATION":70.0003,"RA_OF_ASC_NODE":69.4039,"ARG_OF_PERICENTER":266.6465,"MEAN_ANOMALY":93.4359,"EPHEMERIS_TYPE":0,"CLASSIFICATION_TYPE":"U","NORAD_CAT_ID":56451,"ELEMENT_SET_NO":999,"REV_AT_EPOCH":13832,"BSTAR":0.00031372,"MEAN_MOTION_DOT":3.654e-5,"MEAN_MOTION_DDOT":0},{"OBJECT_NAME":"STARLINK-5986","OBJECT_ID":"2023-064E","EPOCH":"2025-11-16T11:20:42.929376","MEAN_MOTION":14.98341457,"ECCENTRICITY":0.00032415,"INCLINATION":70.001,"RA_OF_ASC_NODE":70.0624,"ARG_OF_PERICENTER":270.1732,"MEAN_ANOMALY":89.9056,"EPHEMERIS_TYPE":0,"CLASSIFICATION_TYPE":"U","NORAD_CAT_ID":56452,"ELEMENT_SET_NO":999,"REV_AT_EPOCH":13828,"BSTAR":0.00026551665,"MEAN_MOTION_DOT":3.077e-5,"MEAN_MOTION_DDOT":0},{"OBJECT_NAME":"STARLINK-5935","OBJECT_ID":"2023-064F","EPOCH":"2025-11-16T11:14:42.209376","MEAN_MOTION":14.98347778,"ECCENTRICITY":0.00032695,"INCLINATION":70.0013,"RA_OF_ASC_NODE":70.0482,"ARG_OF_PERICENTER":270.8073,"MEAN_ANOMALY":89.2711,"EPHEMERIS_TYPE":0,"CLASSIFICATION_TYPE":"U","NORAD_CAT_ID":56453,"ELEMENT_SET_NO":999,"REV_AT_EPOCH":13828,"BSTAR":0.00045657334,"MEAN_MOTION_DOT":5.361e-5,"MEAN_MOTION_DDOT":0},{"OBJECT_NAME":"STARLINK-5959","OBJECT_ID":"2023-064G","EPOCH":"2025-11-16T17:09:13.730400","MEAN_MOTION":14.9829267,"ECCENTRICITY":0.000344,"INCLINATION":69.9997,"RA_OF_ASC_NODE":69.3021,"ARG_OF_PERICENTER":274.9904,"MEAN_ANOMALY":85.0862,"EPHEMERIS_TYPE":0,"CLASSIFICATION_TYPE":"U","NORAD_CAT_ID":56454,"ELEMENT_SET_NO":999,"REV_AT_EPOCH":13832,"BSTAR":-0.00032333,"MEAN_MOTION_DOT":-3.945e-5,"MEAN_MOTION_DDOT":0},{"OBJECT_NAME":"STARLINK-5987","OBJECT_ID":"2023-064H","EPOCH":"2025-11-16T17:03:12.199104","MEAN_MOTION":14.9834497,"ECCENTRICITY":0.0002771,"INCLINATION":70.0014,"RA_OF_ASC_NODE":69.2871,"ARG_OF_PERICENTER":268.7124,"MEAN_ANOMALY":91.3717,"EPHEMERIS_TYPE":0,"CLASSIFICATION_TYPE":"U","NORAD_CAT_ID":56455,"ELEMENT_SET_NO":999,"REV_AT_EPOCH":13832,"BSTAR":0.00064806,"MEAN_MOTION_DOT":7.651e-5,"MEAN_MOTION_DDOT":0},{"OBJECT_NAME":"STARLINK-5995","OBJECT_ID":"2023-064J","EPOCH":"2025-11-16T17:21:12.123936","MEAN_MOTION":14.98332363,"ECCENTRICITY":0.0002994,"INCLINATION":70.0009,"RA_OF_ASC_NODE":69.3323,"ARG_OF_PERICENTER":270.9118,"MEAN_ANOMALY":89.1698,"EPHEMERIS_TYPE":0,"CLASSIFICATION_TYPE":"U","NORAD_CAT_ID":56456,"ELEMENT_SET_NO":999,"REV_AT_EPOCH":13832,"BSTAR":8.7425e-5,"MEAN_MOTION_DOT":9.5e-6,"MEAN_MOTION_DDOT":0},{"OBJECT_NAME":"STARLINK-5994","OBJECT_ID":"2023-064K","EPOCH":"2025-11-16T17:15:11.480832","MEAN_MOTION":14.98345161,"ECCENTRICITY":0.0003814,"INCLINATION":70.0013,"RA_OF_ASC_NODE":69.3166,"ARG_OF_PERICENTER":255.9797,"MEAN_ANOMALY":104.0938,"EPHEMERIS_TYPE":0,"CLASSIFICATION_TYPE":"U","NORAD_CAT_ID":56457,"ELEMENT_SET_NO":999,"REV_AT_EPOCH":13832,"BSTAR":0.00036998,"MEAN_MOTION_DOT":4.326e-5,"MEAN_MOTION_DDOT":0}]
