STARLINK-6239           
1 56423U 23061BB  25320.01605067  .00002512  00000+0  20098-3 0  9990
2 56423  43.0042  69.2583 0001300 270.4807  89.5887 15.02535381139955
STARLINK-6242           
1 56424U 23061BC  25320.67084359  .00000847  00000+0  77769-4 0  9995
2 56424  43.0021  65.5701 0001222 275.8963  84.1740 15.02529741140054
STARLINK-6224           
1 56425U 23061BD  25320.60768384  .00001042  00000+0  92155-4 0  9990
2 56425  43.0038  65.9554 0001234 268.3963  91.6738 15.02539318140043
STARLINK-5352           
1 56426U 23061BE  25320.58449420  .00002045  00000+0  16636-3 0  9998
2 56426  43.0048  66.6267 0001494 267.3952  92.6720 15.02541698140034
STARLINK-5724           
1 56427U 23061BF  25320.04268525  .00000539  00000+0  54928-4 0  9998
2 56427  43.0029  69.4461 0000527 243.1032 116.9757 15.02539530139959
STARLINK-6238           
1 56428U 23061BG  25320.66415713 -.00001029  00000+0 -61097-4 0  9992
2 56428  43.0027  65.5204 0001194 290.5083  69.5631 15.02555821140051
STARLINK-6264           
1 56429U 23061BH  25320.66084813  .00002231  00000+0  18018-3 0  9994
2 56429  43.0045  65.4934 0001309 261.4865  98.5829 15.02541357140054
STARLINK-5990           
1 56448U 23064A   25320.59387069 -.00000426  00000+0 -27897-4 0  9991
2 56448  70.0002  69.6846 0003108 270.2786  89.8017 14.98341163138309
STARLINK-5993           
1 56449U 23064B   25320.74810145  .00001616  00000+0  14321-3 0  9992
2 56449  70.0000  69.4186 0003077 267.1340  92.9467 14.98336923138323
STARLINK-5970           
1 56450U 23064C   25320.72323123 -.00005280  00000+0 -43505-3 0  9996
2 56450  70.0001  69.3328 0002762 264.7113  95.3731 14.98334313138326
STARLINK-5985           
1 56451U 23064D   25320.74392553  .00003654  00000+0  31372-3 0  9992
2 56451  70.0003  69.4039 0002929 266.6465  93.4359 14.98347040138321
STARLINK-5986           
1 56452U 23064E   25320.47271909  .00003077  00000+0  26552-3 0  9997
2 56452  70.0010  70.0624 0003241 270.1732  89.9056 14.98341457138288
STARLINK-5935           
1 56453U 23064F   25320.46854409  .00005361  00000+0  45657-3 0  9994
2 56453  70.0013  70.0482 0003269 270.8073  89.2711 14.98347778138282
STARLINK-5959           
1 56454U 23064G   25320.71474225 -.00003945  00000+0 -32333-3 0  9992
2 56454  69.9997  69.3021 0003440 274.9904  85.0862 14.98292670138326
STARLINK-5987           
1 56455U 23064H   25320.71055786  .00007651  00000+0  64806-3 0  9996
2 56455  70.0014  69.2871 0002771 268.7124  91.3717 14.98344970138323
STARLINK-5995           
1 56456U 23064J   25320.72305699  .00000950  00000+0  87425-4 0  9997
2 56456  70.0009  69.3323 0002994 270.9118  89.1698 14.98332363138322
STARLINK-5994           
1 56457U 23064K   25320.71888288  .00004326  00000+0  36998-3 0  9996
2 56457  70.0013  69.3166 0003814 255.9797 104.0938 14.98345161138325
